NORAD_CAT_ID,OBJECT_NAME,OBJECT_TYPE,EPOCH,MEAN_MOTION,ECCENTRICITY,INCLINATION,RA_OF_ASC_NODE,ARG_OF_PERICENTER,MEAN_ANOMALY,BSTAR,MEAN_MOTION_DOT,MEAN_MOTION_DDOT,TLE_LINE0,TLE_LINE1,TLE_LINE2,SEMIMAJOR_AXIS,PERIOD,APOGEE,PERIGEE,DECAYED
55952.0,STARLINK-5893,PAYLOAD,2023-12-23 14:00:28,14.98333425,0.0002719,70.0,139.5775,271.1364,88.9484,-3.8799e-05,-5.56e-06,0.0,0 STARLINK-5893,1 55952U 23037AQ  23357.58365891 -.00000556  00000-0 -38799-4 0  9994,2 55952  70.0000 139.5775 0002719 271.1364  88.9484 14.98333425 43577,6950.182,96.107,573.937,570.158,0.0
55952.0,STARLINK-5893,PAYLOAD,2023-12-23 18:48:52,14.98334906,0.0002695,69.9999,139.0723,270.3401,89.7449,-1.6587e-05,-2.91e-06,0.0,0 STARLINK-5893,1 55952U 23037AQ  23357.78393675 -.00000291  00000-0 -16587-4 0  9994,2 55952  69.9999 139.0723 0002695 270.3401  89.7449 14.98334906 43941,6950.178,96.107,573.916,570.17,0.0
55952.0,STARLINK-5893,PAYLOAD,2023-12-24 12:26:20,14.98329668,0.0002804,69.9997,137.2203,270.391,89.6928,4.9119e-05,4.93e-06,0.0,0 STARLINK-5893,1 55952U 23037AQ  23358.51829680  .00000493  00000-0  49119-4 0  9995,2 55952  69.9997 137.2203 0002804 270.3910  89.6928 14.98329668 44052,6950.194,96.107,574.008,570.11,0.0
55952.0,STARLINK-5893,PAYLOAD,2023-12-24 18:50:52,14.98331988,0.0002792,69.9997,136.547,270.1484,89.9355,6.8792e-05,7.28e-06,0.0,0 STARLINK-5893,1 55952U 23037AQ  23358.78533452  .00000728  00000-0  68792-4 0  9992,2 55952  69.9997 136.5470 0002792 270.1484  89.9355 14.98331988 44099,6950.187,96.107,573.992,570.111,0.0
55952.0,STARLINK-5893,PAYLOAD,2023-12-25 12:28:21,14.98331507,0.0002742,70.0,134.6954,267.4821,92.6024,-1.0068e-05,-2.13e-06,0.0,0 STARLINK-5893,1 55952U 23037AQ  23359.51969581 -.00000213  00000-0 -10068-4 0  9994,2 55952  70.0000 134.6954 0002742 267.4821  92.6024 14.98331507 44206,6950.188,96.107,573.959,570.147,0.0
55952.0,STARLINK-5893,PAYLOAD,2023-12-25 14:04:29,14.98331936,0.0002791,70.0001,134.5271,268.4794,91.6046,-1.3577e-05,-2.55e-06,0.0,0 STARLINK-5893,1 55952U 23037AQ  23359.58645552 -.00000255  00000-0 -13577-4 0  9994,2 55952  70.0001 134.5271 0002791 268.4794  91.6046 14.98331936 43873,6950.187,96.107,573.992,570.112,0.0
55952.0,STARLINK-5893,PAYLOAD,2023-12-25 18:52:53,14.98334126,0.0002702,70.0001,134.0223,267.5352,92.5498,-1.1898e-05,-2.35e-06,0.0,0 STARLINK-5893,1 55952U 23037AQ  23359.78673368 -.00000235  00000-0 -11898-4 0  9994,2 55952  70.0001 134.0223 0002702 267.5352  92.5498 14.98334126 44244,6950.18,96.107,573.923,570.167,0.0
55952.0,STARLINK-5893,PAYLOAD,2023-12-26 10:54:14,14.98323555,0.0002669,70.0005,132.3389,261.0982,98.9875,-2.8585e-05,-4.34e-06,0.0,0 STARLINK-5893,1 55952U 23037AQ  23360.45433978 -.00000434  00000-0 -28585-4 0  9993,2 55952  70.0005 132.3389 0002669 261.0982  98.9875 14.98323555 44346,6950.213,96.107,573.933,570.223,0.0
55952.0,STARLINK-5893,PAYLOAD,2023-12-26 14:06:31,14.98323533,0.0002666,70.0007,132.0024,258.9423,101.1437,-3.4287e-05,-5.02e-06,0.0,0 STARLINK-5893,1 55952U 23037AQ  23360.58786006 -.00000502  00000-0 -34287-4 0  9992,2 55952  70.0007 132.0024 0002666 258.9423 101.1437 14.98323533 44025,6950.213,96.107,573.931,570.225,0.0
55952.0,STARLINK-5893,PAYLOAD,2023-12-26 18:54:55,14.98324603,0.0002697,70.0006,131.4977,262.127,97.9583,-2.7498e-05,-4.21e-06,0.0,0 STARLINK-5893,1 55952U 23037AQ  23360.78814030 -.00000421  00000-0 -27498-4 0  9999,2 55952  70.0006 131.4977 0002697 262.1270  97.9583 14.98324603 44398,6950.21,96.107,573.949,570.2,0.0
55952.0,STARLINK-5893,PAYLOAD,2023-12-27 10:56:15,14.98330887,0.0002995,69.9996,129.8131,268.481,91.6006,1.1819e-05,4.8e-07,0.0,0 STARLINK-5893,1 55952U 23037AQ  23361.45573489  .00000048  00000-0  11819-4 0  9997,2 55952  69.9996 129.8131 0002995 268.4810  91.6006 14.98330887 44499,6950.19,96.107,574.137,569.974,0.0
55952.0,STARLINK-5893,PAYLOAD,2023-12-27 14:08:31,14.98331455,0.0002456,69.9997,129.4765,259.3892,100.6991,7.9886e-06,2e-08,0.0,0 STARLINK-5893,1 55952U 23037AQ  23361.58925479  .00000002  00000-0  79886-5 0  9990,2 55952  69.9997 129.4765 0002456 259.3892 100.6991 14.98331455 44171,6950.188,96.107,573.76,570.346,0.0
55952.0,STARLINK-5893,PAYLOAD,2023-12-27 18:56:55,14.9833396,0.0002916,69.9999,128.9721,265.7133,94.3693,4.4092e-05,4.33e-06,0.0,0 STARLINK-5893,1 55952U 23037AQ  23361.78953152  .00000433  00000-0  44092-4 0  9999,2 55952  69.9999 128.9721 0002916 265.7133  94.3693 14.98333960 44541,6950.181,96.107,574.072,570.019,0.0
55952.0,STARLINK-5893,PAYLOAD,2023-12-28 10:58:16,14.98325801,0.0002828,70.0002,127.2895,261.6565,98.4273,3.6883e-05,3.47e-06,0.0,0 STARLINK-5893,1 55952U 23037AQ  23362.45713674  .00000347  00000-0  36883-4 0  9990,2 55952  70.0002 127.2895 0002828 261.6565  98.4273 14.98325801 44644,6950.206,96.107,574.036,570.105,0.0
55952.0,STARLINK-5893,PAYLOAD,2023-12-28 14:10:32,14.98325799,0.0002706,70.0004,126.9533,255.3013,104.7846,4.8786e-05,4.89e-06,0.0,0 STARLINK-5893,1 55952U 23037AQ  23362.59065645  .00000489  00000-0  48786-4 0  9995,2 55952  70.0004 126.9533 0002706 255.3013 104.7846 14.98325799 44322,6950.206,96.107,573.952,570.19,0.0
55952.0,STARLINK-5893,PAYLOAD,2023-12-28 18:58:56,14.98336484,0.000289,70.0001,126.4474,268.1154,91.9674,-8.175e-05,-1.068e-05,0.0,0 STARLINK-5893,1 55952U 23037AQ  23362.79093304 -.00001068  00000-0 -81750-4 0  9994,2 55952  70.0001 126.4474 0002890 268.1154  91.9674 14.98336484 44699,6950.173,96.107,574.046,570.029,0.0
55952.0,STARLINK-5893,PAYLOAD,2023-12-29 11:00:17,14.98330468,0.0002768,70.0002,124.7642,263.1143,96.9702,-2.7219e-05,-4.18e-06,0.0,0 STARLINK-5893,1 55952U 23037AQ  23363.45853588 -.00000418  00000-0 -27219-4 0  9994,2 55952  70.0002 124.7642 0002768 263.1143  96.9702 14.98330468 44799,6950.191,96.107,573.98,570.133,0.0
55952.0,STARLINK-5893,PAYLOAD,2023-12-29 14:12:33,14.98329888,0.0002826,70.0,124.4273,263.2567,96.827,-3.4281e-05,-5.02e-06,0.0,0 STARLINK-5893,1 55952U 23037AQ  23363.59205632 -.00000502  00000-0 -34281-4 0  9991,2 55952  70.0000 124.4273 0002826 263.2567  96.8270 14.98329888 44478,6950.193,96.107,574.022,570.094,0.0
55952.0,STARLINK-5893,PAYLOAD,2023-12-29 17:24:49,14.98330603,0.0002746,70.0002,124.0908,260.5133,99.5715,-1.6268e-05,-2.87e-06,0.0,0 STARLINK-5893,1 55952U 23037AQ  23363.72557520 -.00000287  00000-0 -16268-4 0  9997,2 55952  70.0002 124.0908 0002746 260.5133  99.5715 14.98330603 44832,6950.191,96.107,573.965,570.148,0.0
55952.0,STARLINK-5893,PAYLOAD,2023-12-30 11:02:18,14.9833031,0.0002858,70.0,122.239,262.7376,97.3458,1.4954e-05,8.5e-07,0.0,0 STARLINK-5893,1 55952U 23037AQ  23364.45993362  .00000085  00000-0  14954-4 0  9990,2 55952  70.0000 122.2390 0002858 262.7376  97.3458 14.98330310 44949,6950.192,96.107,574.043,570.071,0.0
55952.0,STARLINK-5893,PAYLOAD,2023-12-30 14:14:34,14.98330239,0.0002865,70.0,121.9024,262.9538,97.1296,1.3503e-05,6.8e-07,0.0,0 STARLINK-5893,1 55952U 23037AQ  23364.59345366  .00000068  00000-0  13503-4 0  9990,2 55952  70.0000 121.9024 0002865 262.9538  97.1296 14.98330239 44622,6950.192,96.107,574.048,570.066,0.0
55952.0,STARLINK-5893,PAYLOAD,2023-12-30 17:26:50,14.98331415,0.0002855,70.0,121.5658,263.1321,96.9514,2.6164e-05,2.19e-06,0.0,0 STARLINK-5893,1 55952U 23037AQ  23364.72697245  .00000219  00000-0  26164-4 0  9996,2 55952  70.0000 121.5658 0002855 263.1321  96.9514 14.98331415 44989,6950.189,96.107,574.038,570.069,0.0
55952.0,STARLINK-5893,PAYLOAD,2023-12-31 11:04:19,14.98325504,0.0002784,70.0003,119.7147,261.3725,98.7119,-2.8833e-05,-4.37e-06,0.0,0 STARLINK-5893,1 55952U 23037AQ  23365.46133811 -.00000437  00000-0 -28833-4 0  9991,2 55952  70.0003 119.7147 0002784 261.3725  98.7119 14.98325504 45099,6950.207,96.107,574.007,570.137,0.0
55952.0,STARLINK-5893,PAYLOAD,2023-12-31 17:28:51,14.983254,0.0002792,70.0003,119.0416,261.7821,98.3021,-2.8466e-05,-4.33e-06,0.0,0 STARLINK-5893,1 55952U 23037AQ  23365.72837885 -.00000433  00000-0 -28466-4 0  9990,2 55952  70.0003 119.0416 0002792 261.7821  98.3021 14.98325400 45139,6950.207,96.107,574.013,570.132,0.0
55952.0,STARLINK-5893,PAYLOAD,2024-01-01 11:06:20,14.98332079,0.0002959,69.9999,117.1897,267.3521,92.7299,8.424e-06,8e-08,0.0,0 STARLINK-5893,1 55952U 23037AQ  24001.46273360  .00000008  00000-0  84240-5 0  9990,2 55952  69.9999 117.1897 0002959 267.3521  92.7299 14.98332079 45243,6950.186,96.107,574.108,569.995,0.0
55952.0,STARLINK-5893,PAYLOAD,2024-01-01 14:18:36,14.98332381,0.0002983,69.9999,116.8532,266.9271,93.1547,3.1644e-05,2.85e-06,0.0,0 STARLINK-5893,1 55952U 23037AQ  24001.59625259  .00000285  00000-0  31644-4 0  9998,2 55952  69.9999 116.8532 0002983 266.9271  93.1547 14.98332381 44920,6950.186,96.107,574.124,569.977,0.0
55952.0,STARLINK-5893,PAYLOAD,2024-01-01 17:30:52,14.98333603,0.0002999,70.0,116.5168,267.8612,92.2204,4.4935e-05,4.43e-06,0.0,0 STARLINK-5893,1 55952U 23037AQ  24001.72977119  .00000443  00000-0  44935-4 0  9991,2 55952  70.0000 116.5168 0002999 267.8612  92.2204 14.98333603 45282,6950.182,96.107,574.131,569.962,0.0
55952.0,STARLINK-5893,PAYLOAD,2024-01-02 11:08:20,14.98331881,0.0003,70.0,114.664,269.8225,90.259,4.6592e-05,4.63e-06,0.0,0 STARLINK-5893,1 55952U 23037AQ  24002.46413090  .00000463  00000-0  46592-4 0  9999,2 55952  70.0000 114.6640 0003000 269.8225  90.2590 14.98331881 45396,6950.187,96.107,574.137,569.967,0.0
55952.0,STARLINK-5893,PAYLOAD,2024-01-02 14:20:37,14.98331676,0.0002985,70.0,114.3271,271.0135,89.0682,5.644e-05,5.81e-06,0.0,0 STARLINK-5893,1 55952U 23037AQ  24002.59765100  .00000581  00000-0  56440-4 0  9999,2 55952  70.0000 114.3271 0002985 271.0135  89.0682 14.98331676 45074,6950.188,96.107,574.127,569.978,0.0
55952.0,STARLINK-5893,PAYLOAD,2024-01-02 17:32:52,14.98334246,0.0002957,70.0001,113.9907,270.4685,89.6135,6.6911e-05,7.06e-06,0.0,0 STARLINK-5893,1 55952U 23037AQ  24002.73116870  .00000706  00000-0  66911-4 0  9992,2 55952  70.0001 113.9907 0002957 270.4685  89.6135 14.98334246 45433,6950.18,96.107,574.1,569.99,0.0
